H1 CPF 01  gfz 2023 01 01 13  5012 terrasarx 
H2 0702601  6201 31698    2023 01 01 12 59 42 2023 01 06 00 00 42   120 1 1  0 0 0
H9
10 0 59946  26622.000000  0    2873970.132   -204310.015   6246604.267
10 0 59946  26742.000000  0    3608559.324   -571150.801   5829729.963
10 0 59946  26862.000000  0    4273698.552   -940267.904   5310335.687
10 0 59946  26982.000000  0    4857772.907  -1303892.335   4697519.719
10 0 59946  27102.000000  0    5350712.917  -1654156.682   4002032.533
10 0 59946  27222.000000  0    5744177.184  -1983262.542   3236091.952
10 0 59946  27342.000000  0    6031702.738  -2283651.610   2413169.397
10 0 59946  27462.000000  0    6208818.785  -2548175.241   1547751.094
10 0 59946  27582.000000  0    6273122.226  -2770258.245    655078.913
10 0 59946  27702.000000  0    6224311.681  -2944053.602   -249125.783
10 0 59946  27822.000000  0    6064178.927  -3064583.284  -1148947.543
10 0 59946  27942.000000  0    5796557.223  -3127861.560  -2028566.930
10 0 59946  28062.000000  0    5427228.041  -3130997.346  -2872545.705
10 0 59946  28182.000000  0    4963791.202  -3072273.709  -3666102.742
10 0 59946  28302.000000  0    4415500.584  -2951203.222  -4395374.437
10 0 59946  28422.000000  0    3793070.399  -2768558.084  -5047655.590
10 0 59946  28542.000000  0    3108456.197  -2526373.481  -5611614.692
10 0 59946  28662.000000  0    2374619.191  -2227926.072  -6077480.467
10 0 59946  28782.000000  0    1605278.788  -1877689.290  -6437201.300
10 0 59946  28902.000000  0     814654.716  -1481263.918  -6684574.735
10 0 59946  29022.000000  0      17205.875  -1045286.988  -6815343.249
10 0 59946  29142.000000  0    -772629.355   -577321.401  -6827259.008
10 0 59946  29262.000000  0   -1540688.187    -85727.431  -6720118.040
10 0 59946  29382.000000  0   -2273331.803    420483.232  -6495762.805
10 0 59946  29502.000000  0   -2957681.726    931808.068  -6158053.354
10 0 59946  29622.000000  0   -3581842.052   1438427.244  -5712808.650
10 0 59946  29742.000000  0   -4135106.405   1930387.648  -5167717.480
10 0 59946  29862.000000  0   -4608145.595   2397795.661  -4532217.420
10 0 59946  29982.000000  0   -4993171.095   2831015.049  -3817341.590
10 0 59946  30102.000000  0   -5284070.918   3220864.326  -3035536.502
10 0 59946  30222.000000  0   -5476516.581   3558811.623  -2200452.855
10 0 59946  30342.000000  0   -5568036.146   3837162.187  -1326710.175
10 0 59946  30462.000000  0   -5558051.774   4049232.464   -429639.749
10 0 59946  30582.000000  0   -5447879.551   4189507.023    474988.857
10 0 59946  30702.000000  0   -5240691.115   4253774.074   1371253.501
10 0 59946  30822.000000  0   -4941435.857   4239233.916   2243369.285
10 0 59946  30942.000000  0   -4556727.536   4144578.918   3075974.896
10 0 59946  31062.000000  0   -4094698.410   3970044.169   3854410.748
10 0 59946  31182.000000  0   -3564824.151   3717425.086   4564982.511
10 0 59946  31302.000000  0   -2977725.050   3390063.461   5195204.377
10 0 59946  31422.000000  0   -2344947.335   2992802.031   5734018.064
10 0 59946  31542.000000  0   -1678730.846   2531909.331   6171983.703
10 0 59946  31662.000000  0    -991767.458   2014976.236   6501439.844
10 0 59946  31782.000000  0    -296957.332   1450786.938   6716629.418
10 0 59946  31902.000000  0     392832.763    849167.585   6813795.080
10 0 59946  32022.000000  0    1065007.483    220814.267   6791240.355
10 0 59946  32142.000000  0    1707471.649   -422896.391   6649357.362
10 0 59946  32262.000000  0    2308847.106  -1070112.626   6390621.199
10 0 59946  32382.000000  0    2858674.311  -1708724.898   6019549.955
10 0 59946  32502.000000  0    3347596.732  -2326592.396   5542631.443
10 0 59946  32622.000000  0    3767523.479  -2911774.828   4968215.214
10 0 59946  32742.000000  0    4111767.725  -3452765.264   4306372.469
10 0 59946  32862.000000  0    4375158.177  -3938720.159   3568724.003
10 0 59946  32982.000000  0    4554121.200  -4359681.302   2768238.593
10 0 59946  33102.000000  0    4646731.781  -4706784.347   1919004.149
10 0 59946  33222.000000  0    4652730.628  -4972448.075   1035975.687
10 0 59946  33342.000000  0    4573506.898  -5150540.628    134705.734
10 0 59946  33462.000000  0    4412046.996  -5236517.375   -768937.168
10 0 59946  33582.000000  0    4172852.476  -5227528.017  -1659056.624
10 0 59946  33702.000000  0    3861825.964  -5122488.692  -2520016.878
10 0 59946  33822.000000  0    3486130.308  -4922118.137  -3336723.803
10 0 59946  33942.000000  0    3054024.226  -4628937.003  -4094893.059
10 0 59946  34062.000000  0    2574679.283  -4247232.323  -4781300.008
10 0 59946  34182.000000  0    2057982.608  -3782986.393  -5384006.626
10 0 59946  34302.000000  0    1514331.549  -3243774.000  -5892560.001
10 0 59946  34422.000000  0     954424.805  -2638632.878  -6298163.279
10 0 59946  34542.000000  0     389052.816  -1977907.806  -6593817.635
10 0 59946  34662.000000  0    -171107.772  -1273070.896  -6774432.228
10 0 59946  34782.000000  0    -715690.982   -536522.630  -6836902.075
10 0 59946  34902.000000  0   -1234828.054    218622.811  -6780155.065
10 0 59946  35022.000000  0   -1719322.246    978765.209  -6605167.621
10 0 59946  35142.000000  0   -2160807.858   1730057.016  -6314949.642
10 0 59946  35262.000000  0   -2551891.837   2458649.224  -5914498.514
10 0 59946  35382.000000  0   -2886277.562   3150942.364  -5410723.042
10 0 59946  35502.000000  0   -3158867.701   3793839.032  -4812335.825
10 0 59946  35622.000000  0   -3365845.602   4374993.685  -4129713.990
10 0 59946  35742.000000  0   -3504731.409   4883053.928  -3374728.032
10 0 59946  35862.000000  0   -3574411.200   5307887.186  -2560542.886
10 0 59946  35982.000000  0   -3575140.635   5640790.045  -1701394.464
10 0 59946  36102.000000  0   -3508521.146   5874675.408   -812342.012
10 0 59946  36222.000000  0   -3377447.409   6004229.825     90999.404
10 0 59946  36342.000000  0   -3186029.890   6026036.989    992738.297
10 0 59946  36462.000000  0   -2939491.450   5938665.253   1876996.432
10 0 59946  36582.000000  0   -2644038.800   5742713.166   2728199.148
10 0 59946  36702.000000  0   -2306715.039   5440812.381   3531357.850
10 0 59946  36822.000000  0   -1935237.713   5037590.409   4272339.321
10 0 59946  36942.000000  0   -1537825.941   4539593.978   4938117.678
10 0 59946  37062.000000  0   -1123020.065   3955175.312   5517004.327
10 0 59946  37182.000000  0    -699498.941   3294343.189   5998850.594
10 0 59946  37302.000000  0    -275899.806   2568583.391   6375220.897
10 0 59946  37422.000000  0     139356.397   1790653.172   6639533.927
10 0 59946  37542.000000  0     538231.082    974353.496   6787172.427
10 0 59946  37662.000000  0     913222.540    134281.959   6815558.096
10 0 59946  37782.000000  0    1257505.816   -714427.134   6724193.754
10 0 59946  37902.000000  0    1565056.401  -1556375.013   6514672.523
10 0 59946  38022.000000  0    1830755.916  -2376177.129   6190651.998
10 0 59946  38142.000000  0    2050477.973  -3158745.075   5757795.062
10 0 59946  38262.000000  0    2221153.004  -3889566.815   5223676.110
10 0 59946  38382.000000  0    2340810.437  -4554979.241   4597653.695
10 0 59946  38502.000000  0    2408598.596  -5142429.119   3890712.473
10 0 59946  38622.000000  0    2424781.997  -5640718.229   3115273.745
10 0 59946  38742.000000  0    2390713.152  -6040225.797   2284977.759
10 0 59946  38862.000000  0    2308781.473  -6333102.013   1414441.023
10 0 59946  38982.000000  0    2182340.731  -6513427.660    518994.914
10 0 59946  39102.000000  0    2015615.792  -6577339.145   -385590.321
10 0 59946  39222.000000  0    1813591.398  -6523112.927  -1283393.311
10 0 59946  39342.000000  0    1581883.145  -6351203.897  -2158632.015
10 0 59946  39462.000000  0    1326596.809  -6064241.082  -2995948.238
10 0 59946  39582.000000  0    1054179.855  -5666977.158  -3780682.778
10 0 59946  39702.000000  0     771270.043  -5166198.009  -4499132.317
10 0 59946  39822.000000  0     484542.659  -4570594.478  -5138786.098
10 0 59946  39942.000000  0     200561.133  -3890599.995  -5688537.244
10 0 59946  40062.000000  0     -74365.776  -3138197.868  -6138866.695
10 0 59946  40182.000000  0    -334317.243  -2326703.120  -6481996.846
10 0 59946  40302.000000  0    -573881.741  -1470523.662  -6712014.333
10 0 59946  40422.000000  0    -788264.471   -584905.496  -6824961.842
10 0 59946  40542.000000  0    -973379.050    314335.374  -6818899.020
10 0 59946  40662.000000  0   -1125922.735   1211088.928  -6693930.862
10 0 59946  40782.000000  0   -1243433.975   2089232.222  -6452205.998
10 0 59946  40902.000000  0   -1324331.339   2932911.765  -6097883.949
10 0 59946  41022.000000  0   -1367933.950   3726825.520  -5637072.764
10 0 59946  41142.000000  0   -1374462.585   4456499.045  -5077733.725
10 0 59946  41262.000000  0   -1345021.536   5108551.908  -4429555.759
10 0 59946  41382.000000  0   -1281561.509   5670949.605  -3703797.790
10 0 59946  41502.000000  0   -1186823.372   6133234.174  -2913101.261
10 0 59946  41622.000000  0   -1064263.979   6486729.262  -2071276.467
10 0 59946  41742.000000  0    -917965.410   6724715.610  -1193063.691
10 0 59946  41862.000000  0    -752529.776   6842569.689   -293874.026
10 0 59946  41982.000000  0    -572961.290   6837864.205    610485.138
10 0 59946  42102.000000  0    -384538.876   6710425.389   1504096.521
10 0 59946  42222.000000  0    -192682.854   6462342.430   2371223.824
10 0 59946  42342.000000  0      -2819.514   6097929.982   3196596.847
10 0 59946  42462.000000  0     179753.345   5623648.052   3965686.080
10 0 59946  42582.000000  0     349996.697   5047982.696   4664963.892
10 0 59946  42702.000000  0     503253.383   4381281.422   5282148.346
10 0 59946  42822.000000  0     635360.598   3635554.889   5806413.287
10 0 59946  42942.000000  0     742750.020   2824253.933   6228575.168
10 0 59946  43062.000000  0     822531.872   1962019.050   6541248.763
99
